[Satellite]
VERSION=1.1
NAME=SUPERBIRD-C
NICKNAME=SUPERBIRD-C
TLE1=1 24880U 97036A   15054.87769773 -.00000239  00000-0  00000+0 0  9990
TLE2=2 24880   5.2010  59.9628 0001227 309.2411 245.9860  1.00402664 64314
